ONEWEB-0116             
1 48046U 21025E   25007.57856183 -.00000039  00000+0 -14155-3 0  9991
2 48046  87.8907  64.7297 0001660  99.2928 260.8389 13.13470456184654
ONEWEB-0150             
1 48047U 21025F   25008.16259747 -.00000835  00000+0 -23218-2 0  9994
2 48047  87.8904  64.6200 0001993  95.4794 264.6562 13.13471413184629
ONEWEB-0107             
1 48048U 21025G   25008.16416880 -.00000113  00000+0 -34345-3 0  9991
2 48048  87.8900  64.6173 0002228 105.4111 254.7265 13.13468103184602
ONEWEB-0101             
1 48049U 21025H   25008.50856360  .00000128  00000+0  31642-3 0  9992
2 48049  87.8905  64.5773 0001912 103.6095 256.5247 13.13469383184626
ONEWEB-0113             
1 48050U 21025J   25007.57221205 -.00000230  00000+0 -66505-3 0  9996
2 48050  87.8908  64.7443 0001725  98.8557 261.2767 13.13470081184589
ONEWEB-0112             
1 48051U 21025K   25007.40715493 -.00000592  00000+0 -16568-2 0  9990
2 48051  87.8902  64.7656 0001870  98.6185 261.5156 13.13469612184578
ONEWEB-0156             
1 48052U 21025L   25007.56902769 -.00000197  00000+0 -57363-3 0  9992
2 48052  87.8905  64.7384 0001870  99.6413 260.4928 13.13468223184588
ONEWEB-0161             
1 48053U 21025M   25007.84676921  .00000163  00000+0  41260-3 0  9992
2 48053  87.8909  64.6958 0001988 101.9477 258.1875 13.13468282184542
